     4.02           N: GNSS NAV DATA    M: Mixed            RINEX VERSION / TYPE
BNC 2.13.4          user                20260407 030003 UTC PGM / RUN BY / DATE
Source: RTCM_3.3 products.igs-ip.net/BCEP00BKG0             COMMENT
    18                                                      LEAP SECONDS
                                                            END OF HEADER
> EPH E28 FNAV
E28 2026 04 07 03 00 00-3.342423588037e-05-3.097966327914e-12 0.000000000000e+00
     5.200000000000e+01-2.896875000000e+01 3.618007847406e-09-1.413749840035e+00
    -1.225620508194e-06 1.384710194543e-04 6.912276148796e-06 5.440605998993e+03
     1.836000000000e+05-4.470348358154e-08-1.554974747808e+00 8.381903171539e-08
     9.470196967716e-01 1.860000000000e+02-3.059287235204e+00-5.647378093108e-09
     5.253790270024e-10 2.580000000000e+02 2.413000000000e+03 0.000000000000e+00
     3.120000000000e+00 4.800000000000e+01-1.629814505577e-09 0.000000000000e+00
     9.999000000000e+08                                                         
> EPH E29 FNAV
E29 2026 04 07 03 00 00-1.944784307852e-04-3.581135388231e-12 0.000000000000e+00
     5.200000000000e+01-1.906250000000e+01 3.379783638698e-09-1.759147221143e+00
    -9.182840585709e-07 8.398969657719e-05 7.586553692818e-06 5.440603395462e+03
     1.836000000000e+05-6.519258022308e-08-1.574007862077e+00 1.117587089539e-08
     9.607202508147e-01 1.782812500000e+02-1.505090141000e+00-5.511658154114e-09
     4.885917803802e-10 2.580000000000e+02 2.413000000000e+03 0.000000000000e+00
     3.600000000000e+00 0.000000000000e+00-5.820766091347e-09 0.000000000000e+00
     9.999000000000e+08                                                         
> EPH E30 FNAV
E30 2026 04 07 03 00 00-9.140238980763e-04-4.013145371573e-11 0.000000000000e+00
     5.200000000000e+01 7.234375000000e+01 2.949408568991e-09 1.364442149601e+00
     3.153458237648e-06 4.419484175742e-04 9.879469871521e-06 5.440621896744e+03
     1.836000000000e+05 2.980232238770e-08 5.290654834610e-01 4.470348358154e-08
     9.597710261785e-01 1.291875000000e+02 1.108352169237e+00-5.377724003790e-09
    -4.000166622996e-10 2.580000000000e+02 2.413000000000e+03 0.000000000000e+00
     3.120000000000e+00 0.000000000000e+00-2.328306436539e-10 0.000000000000e+00
     9.999000000000e+08                                                         
> EPH E31 FNAV
E31 2026 04 07 03 00 00-1.317364512943e-04-2.771116669464e-12 0.000000000000e+00
     5.200000000000e+01 8.153125000000e+01 2.930479209079e-09 2.367111902569e-02
     3.580003976822e-06 8.279096800834e-05 1.067854464054e-05 5.440612022400e+03
     1.836000000000e+05 9.313225746155e-09 5.271649275867e-01-4.842877388000e-08
     9.619831104579e-01 1.103750000000e+02-6.646906568167e-01-5.320578766319e-09
    -4.446613790741e-10 2.580000000000e+02 2.413000000000e+03 0.000000000000e+00
     3.120000000000e+00 0.000000000000e+00 1.862645149231e-09 0.000000000000e+00
     9.999000000000e+08                                                         
> EPH E32 FNAV
E32 2026 04 07 03 00 00-1.163588603958e-05-2.216893335572e-12 0.000000000000e+00
     5.200000000000e+01-1.368750000000e+01 3.650152043484e-09-3.085923400982e-01
    -5.941838026047e-07 2.096465323120e-04 7.005408406258e-06 5.440605125427e+03
     1.836000000000e+05-3.911554813385e-08-1.554993677968e+00 5.587935447693e-09
     9.470545215365e-01 1.855000000000e+02-1.020986910740e+00-5.695594387225e-09
     4.500187450871e-10 2.580000000000e+02 2.413000000000e+03 0.000000000000e+00
     3.120000000000e+00 4.800000000000e+01-3.958120942116e-09 0.000000000000e+00
     9.999000000000e+08                                                         
> EPH E33 FNAV
E33 2026 04 07 03 00 00-9.837851393968e-06-1.421085471520e-12 0.000000000000e+00
     5.200000000000e+01-6.025000000000e+01 2.662610908432e-09-1.483497557925e+00
    -2.976506948471e-06 1.247333129868e-04 7.599592208862e-07 5.440612028122e+03
     1.836000000000e+05-4.842877388000e-08 2.626470334506e+00-2.048909664154e-08
     9.982917219201e-01 3.393437500000e+02-4.772089669489e-01-5.659164298337e-09
    -8.286059433349e-11 2.580000000000e+02 2.413000000000e+03 0.000000000000e+00
     3.600000000000e+00 0.000000000000e+00-6.519258022308e-09 0.000000000000e+00
     9.999000000000e+08                                                         
> EPH E36 FNAV
E36 2026 04 07 03 00 00-5.477326340042e-04-5.442757355922e-12 0.000000000000e+00
     5.200000000000e+01-4.093750000000e+01 2.602965566821e-09 1.941619787343e+00
    -1.903623342514e-06 3.514318959787e-04 1.674517989159e-06 5.440606719971e+03
     1.836000000000e+05 4.097819328308e-08 2.626497301938e+00 4.097819328308e-08
     9.982789989216e-01 3.174062500000e+02 1.383764702211e-02-5.572374968927e-09
    -5.607376426879e-11 2.580000000000e+02 2.413000000000e+03 0.000000000000e+00
     3.600000000000e+00 0.000000000000e+00 3.026798367500e-09 0.000000000000e+00
     9.999000000000e+08                                                         
> EPH S37 SBAS
S37 2026 04 07 03 12 16 0.000000000000e+00 0.000000000000e+00 9.999000000000e+08
    -2.538347192000e+04-8.562500000000e-04 0.000000000000e+00 4.700000000000e+01
     3.365751528000e+04-9.181250000000e-04 0.000000000000e+00 8.192000000000e+03
    -3.057360000000e+01-3.124000000000e-03 0.000000000000e+00 1.500000000000e+01
> EPH E02 FNAV
E02 2026 04 07 03 00 00 3.079214366153e-05 2.785327524180e-12 0.000000000000e+00
     5.200000000000e+01 7.012500000000e+01 2.945479833915e-09 2.517709542148e+00
     3.306195139885e-06 3.850072389469e-04 1.011230051517e-05 5.440618072510e+03
     1.836000000000e+05 2.607703208923e-08 5.305090471341e-01 6.705522537231e-08
     9.623881412719e-01 1.225937500000e+02 7.501393785218e-01-5.357366012941e-09
    -3.325138505366e-10 2.580000000000e+02 2.413000000000e+03 0.000000000000e+00
     3.120000000000e+00 0.000000000000e+00-4.190951585770e-09 0.000000000000e+00
     9.999000000000e+08                                                         
> EPH E05 FNAV
E05 2026 04 07 03 00 00 2.530956408009e-05 2.742694960034e-12 0.000000000000e+00
     5.200000000000e+01-2.340625000000e+01 3.221205604714e-09 5.641811510609e-01
    -1.093372702599e-06 3.326450241730e-04 7.024034857750e-06 5.440609367371e+03
     1.836000000000e+05 0.000000000000e+00-1.574316302262e+00-3.725290298462e-08
     9.673216701103e-01 1.944062500000e+02-6.812929234992e-01-5.449869866098e-09
     3.853731951976e-10 2.580000000000e+02 2.413000000000e+03 0.000000000000e+00
     3.120000000000e+00 0.000000000000e+00 6.984919309616e-10 0.000000000000e+00
     9.999000000000e+08                                                         
> EPH S36 SBAS
S36 2026 04 07 03 12 32 0.000000000000e+00 0.000000000000e+00 9.999000000000e+08
     4.200368800000e+04 0.000000000000e+00 0.000000000000e+00 4.700000000000e+01
     3.674846960000e+03 0.000000000000e+00 0.000000000000e+00 8.192000000000e+03
     0.000000000000e+00 0.000000000000e+00 0.000000000000e+00 2.800000000000e+01
> EPH S22 SBAS
S22 2026 04 07 03 12 32 0.000000000000e+00 0.000000000000e+00 9.999000000000e+08
    -3.389392800000e+04 0.000000000000e+00 0.000000000000e+00 4.700000000000e+01
     2.508018800000e+04 0.000000000000e+00 0.000000000000e+00 8.192000000000e+03
     0.000000000000e+00 0.000000000000e+00 0.000000000000e+00 1.500000000000e+01
> EPH S29 SBAS
S29 2026 04 07 03 12 48 2.188608050346e-08 0.000000000000e+00 9.999000000000e+08
    -3.783540000000e+02-6.662500000000e-04 0.000000000000e+00 4.700000000000e+01
     4.215800864000e+04-5.843750000000e-04 0.000000000000e+00 8.192000000000e+03
     2.658240000000e+01 5.560000000000e-04 0.000000000000e+00 1.500000000000e+01
> EPH S30 SBAS
S30 2026 04 07 03 14 08-6.793998181820e-07 0.000000000000e+00 9.999000000000e+08
    -3.230545712000e+04 7.700000000000e-04-5.000000000000e-08 4.700000000000e+01
     2.709359632000e+04-8.125000000000e-04-5.000000000000e-08 8.192000000000e+03
     4.050196000000e+02 1.093200000000e-02-1.062500000000e-06 6.200000000000e+01
> EPH S43 SBAS
S43 2026 04 07 03 14 08-7.869675755501e-07 0.000000000000e+00 9.999000000000e+08
    -1.475952744000e+04-3.689375000000e-03-3.750000000000e-08 4.700000000000e+01
     3.945151080000e+04-1.122500000000e-03 1.625000000000e-07 8.192000000000e+03
    -1.586253600000e+03 3.520800000000e-02 4.187500000000e-06 6.100000000000e+01
> EPH S44 SBAS
S44 2026 04 07 03 14 08 3.380700945854e-07 0.000000000000e+00 9.999000000000e+08
     7.293617840000e+03-3.808125000000e-03 3.750000000000e-08 4.700000000000e+01
     4.147794576000e+04 7.556250000000e-04 2.375000000000e-07 8.192000000000e+03
    -1.970314000000e+03 1.926800000000e-02 5.187500000000e-06 6.000000000000e+01
> EPH S37 SBAS
S37 2026 04 07 03 13 20 0.000000000000e+00 0.000000000000e+00 9.999000000000e+08
    -2.538352680000e+04-8.600000000000e-04 0.000000000000e+00 4.700000000000e+01
     3.365745656000e+04-9.168750000000e-04 0.000000000000e+00 8.192000000000e+03
    -3.077360000000e+01-3.116000000000e-03 0.000000000000e+00 1.500000000000e+01
> EPH S23 SBAS
S23 2026 04 07 03 13 20 0.000000000000e+00 0.000000000000e+00 9.999000000000e+08
     3.866796400000e+04 0.000000000000e+00 0.000000000000e+00 4.700000000000e+01
     1.681330800000e+04 0.000000000000e+00 0.000000000000e+00 8.192000000000e+03
     0.000000000000e+00 0.000000000000e+00 0.000000000000e+00 1.510000000000e+02
> EPH E10 INAV
